OBJECT_NAME,OBJECT_ID,EPOCH,MEAN_MOTION,ECCENTRICITY,INCLINATION,RA_OF_ASC_NODE,ARG_OF_PERICENTER,MEAN_ANOMALY,EPHEMERIS_TYPE,CLASSIFICATION_TYPE,NORAD_CAT_ID,ELEMENT_SET_NO,REV_AT_EPOCH,BSTAR,MEAN_MOTION_DOT,MEAN_MOTION_DDOT
BEIDOU-3 G1,2018-085A,2026-06-22T18:37:49.448064,1.00270533,.00082536,2.8837,97.2197,350.4877,262.6345,0,U,43683,999,2811,0,-.107E-5,0
GSAT-29,2018-089A,2026-06-22T19:35:14.306784,1.00268865,.0003711,0.0921,263.8167,164.6871,191.3530,0,U,43698,999,2784,0,.89E-6,0
ES'HAIL 2,2018-090A,2026-06-22T19:42:17.464608,1.00272503,.00019971,0.0147,298.5974,189.9310,103.8271,0,U,43700,999,2773,0,.147E-5,0
GEO-KOMPSAT-2A,2018-100A,2026-06-22T20:11:31.972128,1.00271381,.00023,0.0486,143.7590,305.7160,252.6871,0,U,43823,999,2768,0,-.34E-5,0
GSAT-11,2018-100B,2026-06-22T07:57:27.781920,1.00272709,.00079246,0.0442,256.1727,193.4316,14.2812,0,U,43824,999,2753,0,-.76E-6,0
GSAT-7A,2018-105A,2026-06-22T21:12:42.606144,1.00273009,.00021529,0.0364,102.2763,328.1588,221.5622,0,U,43864,999,2750,0,.3E-6,0
COSMOS 2533,2018-107A,2026-06-22T19:54:52.613568,1.00273531,.00004691,0.0450,100.3335,342.6861,196.6977,0,U,43867,999,2750,0,-.36E-6,0
TJS-3,2018-110A,2026-06-22T17:34:47.511840,1.00269840,.0002367,2.5599,80.4328,77.1971,165.2006,0,U,43874,999,2747,0,-.215E-5,0
ZHONGXING-2D,2019-001A,2026-06-22T20:12:01.925280,1.00268098,.00010724,0.0177,235.1232,114.6146,354.2782,0,U,43920,999,5413,0,-.334E-5,0
HELLAS-SAT 4 & SGS-1,2019-007A,2026-06-22T12:55:22.994112,1.00270544,.00052146,0.0750,126.4951,13.7356,3.3354,0,U,44034,999,2742,0,.155E-5,0
GSAT-31,2019-007B,2026-06-22T18:05:56.570208,1.00271629,.00011538,0.0518,254.7603,117.7720,217.7611,0,U,44035,999,2702,0,.128E-5,0
NUSANTARA SATU,2019-009A,2026-06-22T18:33:49.830624,1.00270248,.00045773,0.0422,140.5511,336.2500,218.6063,0,U,44048,999,2682,0,-.232E-5,0
ZHONGXING-6C,2019-012A,2026-06-22T20:12:01.925280,1.00271414,.00141573,0.0876,75.5556,335.0088,293.8715,0,U,44067,999,2679,0,-.332E-5,0
WGS 10 (USA 291),2019-014A,2026-06-22T05:18:38.681856,1.00272331,.00004507,0.0191,27.0417,354.2013,29.1350,0,U,44071,999,2666,0,.48E-6,0
TIANLIAN 2-01,2019-017A,2026-06-22T19:08:38.463360,1.00271561,.00010379,0.5553,83.1413,33.7266,158.2704,0,U,44076,999,2670,0,-.104E-5,0
ARABSAT-6A,2019-021A,2026-06-22T19:43:32.344896,1.00275709,.00008559,0.0476,4.9237,351.2394,241.2327,0,U,44186,999,2621,0,.157E-5,0
BEIDOU-3 IGSO-1,2019-023A,2026-06-20T13:09:30.279168,1.00290704,.00256163,58.6998,37.6136,225.5297,321.1703,0,U,44204,999,724,0,-.229E-5,0
BEIDOU-2 G8,2019-027A,2026-06-22T20:16:09.030144,1.00269442,.00100932,1.6736,74.5271,283.1436,1.8998,0,U,44231,999,2613,0,-.245E-5,0
YAMAL 601,2019-031A,2026-06-22T19:48:54.330048,1.00271837,.00026396,0.0190,71.2269,19.2857,166.7110,0,U,44307,999,2598,0,.123E-5,0
AT&T T-16,2019-034A,2026-06-22T15:40:46.600896,1.00269154,.00005362,0.0184,63.5408,240.0115,101.6148,0,U,44333,999,2568,0,-.112E-5,0
EUTELSAT 7C,2019-034B,2026-06-22T07:38:14.625312,1.00268707,.00033546,0.0724,179.0330,248.4752,324.5608,0,U,44334,999,688,0,.49E-6,0
BEIDOU-3 IGSO-2,2019-035A,2026-06-21T08:40:24.173760,1.00265382,.00392998,55.2486,158.8257,216.3163,144.0827,0,U,44337,999,2571,0,-.77E-6,0
COSMOS 2539,2019-048A,2026-06-22T14:30:21.209760,1.00275366,.00002955,0.0382,93.3328,50.6018,356.4470,0,U,44457,999,2528,0,.84E-6,0
EDRS-C,2019-049A,2026-06-22T21:11:47.073408,1.00269706,.00009591,0.0301,123.0726,335.0992,273.2864,0,U,44475,999,2526,0,-.259E-5,0
INTELSAT 39 (IS-39),2019-049B,2026-06-22T11:19:14.502432,1.00271710,.00009348,0.0076,349.4901,354.6245,158.2934,0,U,44476,999,2518,0,.35E-6,0
AMOS-17,2019-050A,2026-06-22T19:45:38.869056,1.00270501,.00018691,0.0177,333.4017,144.2134,106.7905,0,U,44479,999,2524,0,.112E-5,0
AEHF-5 (USA 292),2019-051A,2026-06-22T19:57:12.305952,1.00272582,.00660668,1.4485,336.6717,359.8702,326.8546,0,U,44481,999,2531,0,-.255E-5,0
EUTELSAT 5 WEST B,2019-067A,2026-06-22T17:50:52.903104,1.00270838,.00032498,0.0619,357.2297,94.0191,82.3947,0,U,44624,999,2449,0,-.4E-6,0
MEV-1,2019-067B,2026-06-16T22:18:40.152960,1.00269616,.00027946,0.8740,268.9828,179.8034,307.2103,0,U,44625,999,6174,0,-.149E-5,0
TJS-4,2019-070A,2026-06-22T20:00:19.363680,1.00273627,.00043685,0.0330,85.1756,316.1475,253.2761,0,U,44637,999,2459,0,-.167E-5,0
TIBA-1,2019-080A,2026-06-22T19:45:02.200896,1.00274991,.00022174,0.0500,353.8646,116.8490,132.0478,0,U,44800,999,2411,0,.159E-5,0
INMARSAT GX5,2019-080B,2026-06-22T19:38:02.872320,1.00270500,.00022898,0.0375,16.3294,85.3995,114.7792,0,U,44801,999,684,0,.78E-6,0
