BEIDOU-3 G1             
1 43683U 18085A   26173.77626676 -.00000107  00000+0  00000+0 0  9999
2 43683   2.8837  97.2197 0008253 350.4877 262.6345  1.00270533 28112
GSAT-29                 
1 43698U 18089A   26173.81613781  .00000089  00000+0  00000+0 0  9995
2 43698   0.0921 263.8167 0003711 164.6871 191.3530  1.00268865 27841
ES'HAIL 2               
1 43700U 18090A   26173.82103547  .00000147  00000+0  00000+0 0  9991
2 43700   0.0147 298.5974 0001997 189.9310 103.8271  1.00272503 27730
GEO-KOMPSAT-2A          
1 43823U 18100A   26173.84134227 -.00000340  00000+0  00000+0 0  9996
2 43823   0.0486 143.7590 0002300 305.7160 252.6871  1.00271381 27683
GSAT-11                 
1 43824U 18100B   26173.33157155 -.00000076  00000+0  00000+0 0  9992
2 43824   0.0442 256.1727 0007924 193.4316  14.2812  1.00272709 27535
GSAT-7A                 
1 43864U 18105A   26173.88382646  .00000030  00000+0  00000+0 0  9995
2 43864   0.0364 102.2763 0002152 328.1588 221.5622  1.00273009 27502
COSMOS 2533             
1 43867U 18107A   26173.82977562 -.00000036  00000+0  00000+0 0  9998
2 43867   0.0450 100.3335 0000469 342.6861 196.6977  1.00273531 27504
TJS-3                   
1 43874U 18110A   26173.73249435 -.00000215  00000+0  00000+0 0  9990
2 43874   2.5599  80.4328 0002367  77.1971 165.2006  1.00269840 27473
ZHONGXING-2D            
1 43920U 19001A   26173.84168895 -.00000334  00000+0  00000+0 0  9996
2 43920   0.0177 235.1232 0001072 114.6146 354.2782  1.00268098 54134
HELLAS-SAT 4 & SGS-1    
1 44034U 19007A   26173.53846058  .00000155  00000+0  00000+0 0  9999
2 44034   0.0750 126.4951 0005214  13.7356   3.3354  1.00270544 27420
GSAT-31                 
1 44035U 19007B   26173.75412697  .00000128  00000+0  00000+0 0  9992
2 44035   0.0518 254.7603 0001153 117.7720 217.7611  1.00271629 27028
NUSANTARA SATU          
1 44048U 19009A   26173.77349341 -.00000232  00000+0  00000+0 0  9992
2 44048   0.0422 140.5511 0004577 336.2500 218.6063  1.00270248 26827
ZHONGXING-6C            
1 44067U 19012A   26173.84168895 -.00000332  00000+0  00000+0 0  9999
2 44067   0.0876  75.5556 0014157 335.0088 293.8715  1.00271414 26791
WGS 10 (USA 291)        
1 44071U 19014A   26173.22128104  .00000048  00000+0  00000+0 0  9990
2 44071   0.0191  27.0417 0000450 354.2013  29.1350  1.00272331 26666
TIANLIAN 2-01           
1 44076U 19017A   26173.79766740 -.00000104  00000+0  00000+0 0  9998
2 44076   0.5553  83.1413 0001037  33.7266 158.2704  1.00271561 26704
ARABSAT-6A              
1 44186U 19021A   26173.82190214  .00000157  00000+0  00000+0 0  9993
2 44186   0.0476   4.9237 0000855 351.2394 241.2327  1.00275709 26215
BEIDOU-3 IGSO-1         
1 44204U 19023A   26171.54826712 -.00000229  00000+0  00000+0 0  9993
2 44204  58.6998  37.6136 0025616 225.5297 321.1703  1.00290704  7242
BEIDOU-2 G8             
1 44231U 19027A   26173.84454896 -.00000245  00000+0  00000+0 0  9990
2 44231   1.6736  74.5271 0010093 283.1436   1.8998  1.00269442 26130
YAMAL 601               
1 44307U 19031A   26173.82562882  .00000123  00000+0  00000+0 0  9996
2 44307   0.0190  71.2269 0002639  19.2857 166.7110  1.00271837 25984
AT&T T-16               
1 44333U 19034A   26173.65331714 -.00000112  00000+0  00000+0 0  9996
2 44333   0.0184  63.5408 0000536 240.0115 101.6148  1.00269154 25685
EUTELSAT 7C             
1 44334U 19034B   26173.31822483  .00000049  00000+0  00000+0 0  9996
2 44334   0.0724 179.0330 0003354 248.4752 324.5608  1.00268707  6884
BEIDOU-3 IGSO-2         
1 44337U 19035A   26172.36139090 -.00000077  00000+0  00000+0 0  9991
2 44337  55.2486 158.8257 0039299 216.3163 144.0827  1.00265382 25711
COSMOS 2539             
1 44457U 19048A   26173.60441215  .00000084  00000+0  00000+0 0  9998
2 44457   0.0382  93.3328 0000295  50.6018 356.4470  1.00275366 25289
EDRS-C                  
1 44475U 19049A   26173.88318372 -.00000259  00000+0  00000+0 0  9991
2 44475   0.0301 123.0726 0000959 335.0992 273.2864  1.00269706 25263
INTELSAT 39 (IS-39)     
1 44476U 19049B   26173.47169563  .00000035  00000+0  00000+0 0  9994
2 44476   0.0076 349.4901 0000934 354.6245 158.2934  1.00271710 25182
AMOS-17                 
1 44479U 19050A   26173.82336654  .00000112  00000+0  00000+0 0  9991
2 44479   0.0177 333.4017 0001869 144.2134 106.7905  1.00270501 25246
AEHF-5 (USA 292)        
1 44481U 19051A   26173.83139243 -.00000255  00000+0  00000+0 0  9990
2 44481   1.4485 336.6717 0066066 359.8702 326.8546  1.00272582 25318
EUTELSAT 5 WEST B       
1 44624U 19067A   26173.74366786 -.00000040  00000+0  00000+0 0  9992
2 44624   0.0619 357.2297 0003249  94.0191  82.3947  1.00270838 24496
MEV-1                   
1 44625U 19067B   26167.92963140 -.00000149  00000+0  00000+0 0  9993
2 44625   0.8740 268.9828 0002794 179.8034 307.2103  1.00269616 61744
TJS-4                   
1 44637U 19070A   26173.83355745 -.00000167  00000+0  00000+0 0  9993
2 44637   0.0330  85.1756 0004368 316.1475 253.2761  1.00273627 24596
TIBA-1                  
1 44800U 19080A   26173.82294214  .00000159  00000+0  00000+0 0  9998
2 44800   0.0500 353.8646 0002217 116.8490 132.0478  1.00274991 24115
INMARSAT GX5            
1 44801U 19080B   26173.81808880  .00000078  00000+0  00000+0 0  9998
2 44801   0.0375  16.3294 0002289  85.3995 114.7792  1.00270500  6843
